NAVSTAR 51 (USA 166)    
1 27663U 03005A   26156.17365639  .00000035  00000+0  00000+0 0  9998
2 27663  54.8839 215.4464 0147933  53.0561 332.4546  2.00561259171079
NAVSTAR 54 (USA 177)    
1 28190U 04009A   26156.46552035 -.00000033  00000+0  00000+0 0  9998
2 28190  54.8398 276.1610 0115636 172.5952 217.0572  2.00555178162719
NAVSTAR 56 (USA 180)    
1 28474U 04045A   26156.35986913 -.00000064  00000+0  00000+0 0  9991
2 28474  55.1438 325.3724 0169801 316.0991  62.2229  2.00555478158196
NAVSTAR 57 (USA 183)    
1 28874U 05038A   26156.46950455 -.00000031  00000+0  00000+0 0  9996
2 28874  54.8880 273.6506 0127802 296.0738 124.6313  2.00566553151603
INMARSAT 4-F2           
1 28899U 05044A   26156.59164568 -.00000249  00000+0  00000+0 0  9997
2 28899   5.0790  43.7128 0003222  30.4026 176.3872  1.00271201 75402
NAVSTAR 58 (USA 190)    
1 29486U 06042A   26156.58180330  .00000084  00000+0  00000+0 0  9999
2 29486  54.7092 151.7997 0106356  54.1396 345.9347  2.00570592144167
NAVSTAR 59 (USA 192)    
1 29601U 06052A   26156.45220274  .00000037  00000+0  00000+0 0  9995
2 29601  54.9360 214.4715 0085351  90.7498 270.3097  2.00557585143171
NAVSTAR 60 (USA 196)    
1 32260U 07047A   26156.25846299 -.00000012  00000+0  00000+0 0  9998
2 32260  54.0867  80.5574 0166311  87.1523 274.7487  2.00555894136577
COSMOS 2433 [GLONASS-M] 
1 32275U 07052A   26156.18418551 -.00000033  00000+0  00000+0 0  9991
2 32275  65.5837 316.3372 0002033 188.6368 171.3540  2.13104472144800
COSMOS 2432 [GLONASS-M] 
1 32276U 07052B   26152.47921043 -.00000055  00000+0  00000+0 0  9999
2 32276  65.6026 316.5890 0007962 335.3326   6.2477  2.13103259144740
NAVSTAR 61 (USA 199)    
1 32384U 07062A   26156.55837293 -.00000031  00000+0  00000+0 0  9990
2 32384  55.0414 274.6203 0035514 164.8823 178.8466  2.00559459135272
COSMOS 2434 [GLONASS-M] 
1 32393U 07065A   26156.33447530  .00000070  00000+0  00000+0 0  9992
2 32393  64.3171 192.3156 0001092 343.7619  21.4203  2.13101511143528
COSMOS 2436 [GLONASS-M] 
1 32395U 07065C   26156.24129362  .00000070  00000+0  00000+0 0  9994
2 32395  64.3259 192.3911 0017162 354.7132  71.3509  2.13100377143479
NAVSTAR 64 (USA 206)    
1 35752U 09043A   26154.43818670 -.00000076  00000+0  00000+0 0  9995
2 35752  56.2018  27.9918 0053658  82.6385 117.0424  2.00555156123083
COSMOS 2456 [GLONASS-M] 
1 36111U 09070A   26156.36211172 -.00000011  00000+0  00000+0 0  9992
2 36111  65.0050  71.3748 0005034 326.0196 218.4437  2.13103930128179
COSMOS 2457 [GLONASS-M] 
1 36112U 09070B   26156.65934398 -.00000011  00000+0  00000+0 0  9997
2 36112  64.9906  71.2089 0002338 128.2022  51.8019  2.13101382128184
COSMOS 2460 [GLONASS-M] 
1 36402U 10007C   26156.39395707 -.00000032  00000+0  00000+0 0  9990
2 36402  65.4278 314.8657 0002161 101.8616 236.5124  2.13101730126477
NAVSTAR 65 (USA 213)    
1 36585U 10022A   26154.56166646  .00000043  00000+0  00000+0 0  9995
2 36585  54.2712 209.1110 0126411  66.1395 340.8733  2.00561834117320
BEIDOU-2 G4             
1 37210U 10057A   26156.66618806 -.00000100  00000+0  00000+0 0  9997
2 37210   3.6183  69.0151 0004796 203.1726  21.7505  1.00272341 57175
BEIDOU-2 IGSO-2         
1 37256U 10068A   26153.71703494 -.00000206  00000+0  00000+0 0  9997
2 37256  47.5760 272.0122 0055435 212.8539 131.7633  1.00288733 56649
BEIDOU-2 IGSO-3         
1 37384U 11013A   26155.63444529 -.00000179  00000+0  00000+0 0  9993
2 37384  62.3902  40.2715 0034446 185.4993   3.7397  1.00271497 55536
BEIDOU-2 IGSO-4         
1 37763U 11038A   26156.01309722  .00000056  00000+0  00000+0 0  9992
2 37763  54.5979 165.7814 0159001 231.3624 313.8818  1.00287701 54520
GSAT0101 (GALILEO-PFM)  
1 37846U 11060A   26154.94356154 -.00000073  00000+0  00000+0 0  9990
2 37846  56.9986 342.1203 0003386  47.2042 312.8361  1.70475864 90899
GSAT0102 (GALILEO-FM2)  
1 37847U 11060B   26154.86969530 -.00000073  00000+0  00000+0 0  9990
2 37847  57.0019 342.1227 0003534  13.6110 346.7054  1.70476132 90909
COSMOS 2476 [GLONASS-M] 
1 37867U 11064A   26155.54939512 -.00000010  00000+0  00000+0 0  9990
2 37867  65.2634  73.2975 0023086 239.8731 309.4293  2.13104008113491
COSMOS 2477 [GLONASS-M] 
1 37868U 11064B   26156.66858626 -.00000008  00000+0  00000+0 0  9998
2 37868  65.2705  73.3389 0020072 241.0452 267.2413  2.13103229113510
COSMOS 2475 [GLONASS-M] 
1 37869U 11064C   26156.29294414 -.00000008  00000+0  00000+0 0  9997
2 37869  65.2772  73.3732 0025997 253.8433 281.4335  2.13102052113512
